FALCON 9 R/B
1 44480U 19050B   24190.95452539  .00021517  00000-0  88742-3 0  9991
2 44480  26.2446 323.4552 6245815 244.3768  40.3673  3.74052251 50978
AMOS 17
1 44479U 19050A   24191.17688236  .00000108  00000-0  00000-0 0  9990
2 44479   0.0160  67.5455 0001403  47.4365 253.2698  1.00271249 18084
ARIANE 5 DEB (SYLDA)
1 44478U 19049D   24191.19884484  .00235057  00000-0  70624-2 0  9996
2 44478   4.3101 123.2542 4798824  75.5388 331.4261  6.07356866 65845
ARIANE 5 R/B
1 44477U 19049C   24191.39913074  .00003238  00000-0  57069-3 0  9998
2 44477   4.5983 316.4213 6882995  48.3270 352.7877  2.80620125 44900
INTELSAT 39
1 44476U 19049B   24190.85027913  .00000032  00000-0  00000+0 0  9993
2 44476   0.0210  41.0346 0001032 308.2370 306.0528  1.00269615 18022
EDRS-C
1 44475U 19049A   24191.11461113  .00000154  00000-0  00000-0 0  9992
2 44475   0.0626 239.1850 0000605 222.9324 257.8721  1.00274025 18106
BREEZE-M DEB (TANK)
1 44459U 19048C   24191.49254953  .00420082  45084-5  86023-3 0  9990
2 44459  47.8176 165.7160 2007073  33.1077 338.0624 11.70247567 69547
BREEZE-M R/B
1 44458U 19048B   24190.96580119 -.00000196  00000-0  00000-0 0  9999
2 44458   4.8667  80.3523 0711525 110.1449 257.4348  0.90283795 16160
COSMOS 2539
1 44457U 19048A   24190.91854993  .00000080  00000-0  00000-0 0  9998
2 44457   0.0334 106.8450 0000704  42.2044 120.9405  1.00273595 18122
FREGAT R/B
1 44454U 19046B   24191.18153827 -.00000786  00000-0  00000-0 0  9995
2 44454  62.7577 125.2554 6907859 275.1377  15.8924  2.00482122 36242
MERIDIAN 8
1 44453U 19046A   24189.89763374  .00000150  00000-0  00000-0 0  9997
2 44453  62.7126 135.0593 6784863 273.5220  17.4022  2.00622921 36116
CZ-2C R/B
1 44452U 19045D   24191.35841516  .00017010  00000-0  42007-3 0  9993
2 44452  34.9620 181.4861 0058807 107.1282 253.5887 15.37787816275176
YAOGAN-30 Q
1 44451U 19045C   24191.55606249  .00003475  00000-0  31012-3 0  9990
2 44451  34.9947 302.9454 0000290  37.6318 322.4408 14.95507933270257
YAOGAN-30 P
1 44450U 19045B   24191.57840510  .00003342  00000-0  29825-3 0  9994
2 44450  34.9936 302.9738 0008807  25.6153 334.4988 14.95498427270360
YAOGAN-30 N
1 44449U 19045A   24191.60096537  .00003430  00000-0  30614-3 0  9994
2 44449  34.9944 303.2586 0004360 236.7833 123.2455 14.95501145270323
USA 142 DEB
1 44436U 99017H   24186.91145536 -.00000141  00000-0  17299-2 0  9999
2 44436  29.2308 103.1457 7131329 201.9627  97.6543  2.26706190 41070
VOLGA R/B
1 44425U 19039E   24191.54840991  .00019346  00000-0  40243-3 0  9997
2 44425  97.4501 289.5369 0017036 104.3412 255.9730 15.45519481278653
COSMOS 2538
1 44424U 19039D   24191.56463391  .00004069  00000-0  26031-3 0  9998
2 44424  97.6687 257.8031 0053730 328.0212  31.7758 15.07977631272766
COSMOS 2536
1 44422U 19039B   24173.43098059  .28361618  26373-5  35843-2 0  9999
2 44422  97.6230 232.2810 0018306 264.6712 219.3930 16.35442729269927
COSMOS 2535
1 44421U 19039A   24191.55281032  .00001629  00000-0  18008-3 0  9998
2 44421  97.6653 233.4566 0009922  51.4153 308.7952 14.88681094271220
SOCRAT
1 44414U 19038AE  24191.57245111  .00022421  00000-0  61318-3 0  9994
2 44414  97.7093 187.9183 0014731  37.9310 322.2968 15.37273321277136
MOMENTUS-X1
1 44408U 19038Y   24191.53728795  .00011519  00000-0  42759-3 0  9991
2 44408  97.7149 182.3383 0018504  47.6949 312.5853 15.27587233277291
LEMUR 2 ALEX-MADDY
1 44407U 19038X   24191.57083601  .01398789  13699-2  14260-2 0  9997
2 44407  97.6250 199.6646 0008406 218.3505 141.7182 16.11128760278535
LUCKY-7
1 44406U 19038W   24191.51350284  .00038697  00000-0  78562-3 0  9998
2 44406  97.7011 191.0605 0011819  23.4444 336.7341 15.46176389277810
SONATE
1 44400U 19038Q   24191.56762740  .00019624  00000-0  57380-3 0  9995
2 44400  97.7122 186.6775 0016284  35.6863 324.5464 15.35188210277518
DOT-1
1 44399U 19038P   24191.54697106  .00032478  00000-0  75600-3 0  9990
2 44399  97.7061 189.2936 0013695  34.4311 325.7819 15.42134386277692
OBJECT K
1 44395U 19038K   24191.57155644  .00020406  00000-0  58890-3 0  9995
2 44395  97.7106 186.4075 0016185  36.8070 323.4281 15.35592585277516
VDNH 80
1 44392U 19038G   24173.42682560  .14692379  27627-5  27521-3 0  9993
2 44392  97.6413 182.7271 0012680 243.0641 116.9366 16.46585171275672
NSL-1
1 44391U 19038E   24191.54740978  .00286491  00000-0  23905-2 0  9994
2 44391  97.8727 202.5796 0012650 147.6756 212.5281 15.69097713275568
ICEYE-X4
1 44390U 19038D   24191.54510314  .00010146  00000-0  63554-3 0  9999
2 44390  97.8921 180.4604 0016168 222.0534 137.9454 15.09467232274309
ICEYE-X5
1 44389U 19038C   24191.56688941  .00011570  00000-0  63545-3 0  9993
2 44389  97.9179 186.4147 0013791 216.2525 143.7772 15.14215256274542
METEOR M2-2
1 44387U 19038A   24191.56642035  .00000056  00000-0  44068-4 0  9992
2 44387  98.8277 160.8795 0000216 198.5213 161.5958 14.23899872260571
FORMOSAT7-5/COSMIC2-5
1 44358U 19036V   24191.00359985  .00008793  00000-0  49244-3 0  9992
2 44358  24.0005  54.0881 0001532 354.5046   5.5442 15.10955798275656
FORMOSAT7-6/COSMIC2-6
1 44353U 19036Q   24191.15798519  .00007545  00000-0  41934-3 0  9995
2 44353  23.9993 113.2472 0000759 194.5661 165.4821 15.10992611275151
FORMOSAT7-2/COSMIC2-2
1 44351U 19036N   24191.55447085  .00007643  00000-0  42424-3 0  9990
2 44351  23.9988 289.6994 0002510 126.5942 233.4793 15.11054681276987
FORMOSAT7-4/COSMIC2-4
1 44350U 19036M   24191.53144284  .00007161  00000-0  39650-3 0  9994
2 44350  23.9976 235.5221 0002855 152.9447 207.1206 15.11026980277463
FORMOSAT7-1/COSMIC2-1
1 44349U 19036L   24191.31166083  .00007197  00000-0  39882-3 0  9995
2 44349  23.9977 174.9444 0002450 171.6556 188.3989 15.11010179278018
FALCON HEAVY R/B
1 44345U 19036G   24191.28799881  .00000003  00000-0  00000-0 0  9991
2 44345  42.2049 184.9759 2155484 149.2655 225.3906  4.69266916 86412
DSX
1 44344U 19036F   24186.32441896 -.00000001  00000-0  00000-0 0  9998
2 44344  42.2140 251.5533 1977184  69.0779 310.9484  4.54374051 83398
FORMOSAT7-3/COSMIC2-3
1 44343U 19036E   24191.57630460  .00008227  00000-0  45875-3 0  9996
2 44343  24.0010 357.1372 0001376 144.6090 215.4506 15.11012683276282
OTB
1 44341U 19036C   24191.28358975  .00001105  00000-0  20499-3 0  9993
2 44341  23.9958 136.5677 0011674 153.0722 207.0376 14.54549420268085
NPSAT1
1 44340U 19036B   24191.45263247  .00005885  00000-0  11066-2 0  9996
2 44340  23.9999 107.9532 0009716 198.4992 161.5149 14.61977140268294
PROX-1
1 44339U 19036A   24191.35101276  .00009564  00000-0  16171-2 0  9996
2 44339  24.0000  82.7848 0008746 248.1402 111.8162 14.67342093268504
BEIDOU 3 IGSO-2
1 44337U 19035A   24191.33903387 -.00000107  00000-0  00000-0 0  9991
2 44337  55.1826 165.0741 0035262 205.3076 157.0420  1.00290798 18571
ARIANE 5 DEB (SYLDA)
1 44336U 19034D   24191.13608196  .00243125  00000-0  11458-1 0  9995
2 44336   5.8011 165.1191 6191189 312.6263   9.5082  3.81709030 51303
ARIANE 5 R/B
1 44335U 19034C   24191.26584526  .00011699  00000-0  14367-2 0  9990
2 44335   5.7661 339.7638 7143484 329.9132   3.5199  2.47427700 43822
EUTE 7C
1 44334U 19034B   24191.55491946  .00000049  00000-0  00000-0 0  9998
2 44334   0.0796 189.7175 0003215 265.6469  39.3774  1.00272900 19025
AT&T T-16
1 44333U 19034A   24191.53342487 -.00000114  00000-0  00000-0 0  9994
2 44333   0.0174 355.4522 0000771 292.9619  90.6957  1.00269055 18531
RCM 2
1 44324U 19033C   24191.58154555  .00001454  00000-0  14683-3 0  9997
2 44324  97.7605 198.1907 0001443  90.5853 269.5532 14.92590962276532
RCM 3
1 44323U 19033B   24191.55933541  .00001832  00000-0  18355-3 0  9993
2 44323  97.7599 198.2170 0001487  90.1760 269.9629 14.92584882276543
RCM 1
1 44322U 19033A   24191.60375608  .00001148  00000-0  11705-3 0  9994
2 44322  97.7605 198.1646 0001459  88.6379 271.5007 14.92590390276533
OBJECT G
1 44316U 19032G   24191.61053623  .00005279  00000-0  35751-3 0  9993
2 44316  44.9800 266.9845 0014071 213.3099 146.6891 15.07478951279588
OBJECT F
1 44315U 19032F   24191.48748900  .00007802  00000-0  39753-3 0  9996
2 44315  44.9773 212.8432 0011926 272.6016  87.3497 15.17253947280213
OBJECT E
1 44314U 19032E   24191.51569232  .00006584  00000-0  38363-3 0  9990
2 44314  44.9820 231.5718 0011413 245.9809 113.9874 15.12687146280003
OBJECT D
1 44313U 19032D   24191.45992783  .00013238  00000-0  61848-3 0  9991
2 44313  44.9879 216.7502 0008019 271.6179  88.3782 15.19798058280203
OBJECT C
1 44312U 19032C   24191.54618088  .00004387  00000-0  26573-3 0  9994
2 44312  44.9822 233.4885 0010386 246.6050 113.3735 15.11974566279960
OBJECT B
1 44311U 19032B   24191.55428752  .00006531  00000-0  37989-3 0  9997
2 44311  44.9736 232.8711 0010831 250.1008 109.8702 15.12764986280041
OBJECT A
1 44310U 19032A   24191.56415718  .00005696  00000-0  38373-3 0  9994
2 44310  44.9795 267.3957 0010473 229.3743 130.6222 15.07576141279636
BREEZE-M DEB (TANK)
1 44309U 19031C   24190.89425346  .00004043  00000-0  58906-3 0  9993
2 44309  49.5430  42.5942 5625381 299.0002  16.3007  4.62959947 84908
BREEZE-M R/B
1 44308U 19031B   24191.48044759 -.00000154  00000-0  00000-0 0  9992
2 44308  18.5748 278.0978 5396361  90.3498 328.4355  2.00516292 37446
YAMAL 601
1 44307U 19031A   24191.56327362  .00000120  00000-0  00000-0 0  9996
2 44307   0.0160  87.3399 0002340  16.9126  75.4905  1.00272112 18825
FREGAT R/B
1 44300U 19030B   24189.49703461  .00000053  00000-0  00000-0 0  9990
2 44300  64.3117 219.0519 0075421 135.7205 224.9530  2.09028939 39058
COSMOS 2534 (GLONASS)
1 44299U 19030A   24190.97375041  .00000046  00000-0  00000-0 0  9993
2 44299  64.3716 216.4958 0013578 278.2811 142.6271  2.13102358 39836
PSLV R/B
1 44234U 19028B   24191.39384279  .00011692  00000-0  34915-3 0  9993
2 44234  37.0195 235.6841 0039964 184.2941 175.7473 15.33224525285408
